[{"OBJECT_NAME":"OBJECT D","OBJECT_ID":"2024-092D","EPOCH":"2026-03-09T21:12:33.501312","MEAN_MOTION":15.33078357,"ECCENTRICITY":0.00083397,"INCLINATION":97.6418,"RA_OF_ASC_NODE":198.2302,"ARG_OF_PERICENTER":141.9853,"MEAN_ANOMALY":218.1979,"EPHEMERIS_TYPE":0,"CLASSIFICATION_TYPE":"U","NORAD_CAT_ID":59776,"ELEMENT_SET_NO":999,"REV_AT_EPOCH":10051,"BSTAR":0.00076511005,"MEAN_MOTION_DOT":0.00024443,"MEAN_MOTION_DDOT":0},{"OBJECT_NAME":"STARLINK-35468","OBJECT_ID":"2025-237E","EPOCH":"2026-03-09T04:59:50.630496","MEAN_MOTION":15.30193843,"ECCENTRICITY":0.00011921,"INCLINATION":53.1601,"RA_OF_ASC_NODE":42.0915,"ARG_OF_PERICENTER":74.2458,"MEAN_ANOMALY":285.8674,"EPHEMERIS_TYPE":0,"CLASSIFICATION_TYPE":"U","NORAD_CAT_ID":66118,"ELEMENT_SET_NO":999,"REV_AT_EPOCH":2253,"BSTAR":0.0014561469,"MEAN_MOTION_DOT":0.00043009,"MEAN_MOTION_DDOT":0}]
